MALLIGYONG-1            
1 58400U 23179A   24047.60966137  .00008734  00000+0  37956-3 0  9998
2 58400  97.4210 296.2568 0014890 339.2907  20.7724 15.22424349 13232
